[{"OBJECT_NAME":"YAOGAN-27","OBJECT_ID":"2015-040A","EPOCH":"2026-03-09T23:21:37.385568","MEAN_MOTION":13.16063344,"ECCENTRICITY":0.00088956,"INCLINATION":100.1112,"RA_OF_ASC_NODE":59.6878,"ARG_OF_PERICENTER":83.8271,"MEAN_ANOMALY":276.3856,"EPHEMERIS_TYPE":0,"CLASSIFICATION_TYPE":"U","NORAD_CAT_ID":40878,"ELEMENT_SET_NO":999,"REV_AT_EPOCH":50461,"BSTAR":-0.0012687486,"MEAN_MOTION_DOT":-5.24e-6,"MEAN_MOTION_DDOT":0},{"OBJECT_NAME":"ONEWEB-0679","OBJECT_ID":"2023-068F","EPOCH":"2026-03-09T21:58:32.448576","MEAN_MOTION":13.16593761,"ECCENTRICITY":0.00013538,"INCLINATION":87.9012,"RA_OF_ASC_NODE":248.5082,"ARG_OF_PERICENTER":74.9432,"MEAN_ANOMALY":285.1848,"EPHEMERIS_TYPE":0,"CLASSIFICATION_TYPE":"U","NORAD_CAT_ID":56715,"ELEMENT_SET_NO":999,"REV_AT_EPOCH":13866,"BSTAR":-9.875507e-6,"MEAN_MOTION_DOT":9.0e-8,"MEAN_MOTION_DDOT":0}]
